start=new Date('2022-03-09T00:00:00.000Z').valueOf();
sats=[{"MEAN_MOTION_DDOT":"0.0000000000000","BSTAR":"-0.00005051200000","CLASSIFICATION_TYPE":"U","NORAD_CAT_ID":"46674","MEAN_MOTION_DOT":"-0.00001034","CENTER_NAME":"EARTH","TLE_LINE2":"2 46674  53.0562 323.5785 0001540  64.8929 295.2219 15.06390800 76815","PERIOD":"95.593","MEAN_ANOMALY":"295.2219","MEAN_MOTION":"15.06390800","GP_ID":"198272968","ECCENTRICITY":"0.00015400","ARG_OF_PERICENTER":"64.8929","MEAN_ELEMENT_THEORY":"SGP4","RA_OF_ASC_NODE":"323.5785","TIME_SYSTEM":"UTC","RCS_SIZE":"LARGE","INCLINATION":"53.0562","FILE":"3351330","SITE":"AFETR","OBJECT_TYPE":"PAYLOAD","TLE_LINE1":"1 46674U 20073E   22067.96140125 -.00001034  00000-0 -50512-4 0  9991","REF_FRAME":"TEME","REV_AT_EPOCH":"7681","PERIAPSIS":"546.175","OBJECT_NAME":"STARLINK-1718","APOAPSIS":"548.308","DECAY_DATE":null,"COUNTRY_CODE":"US","EPHEMERIS_TYPE":"0","OBJECT_ID":"2020-073E","ELEMENT_SET_NO":"999","EPOCH":"2022-03-08T23:04:25.068000","SEMIMAJOR_AXIS":"6925.377","LAUNCH_DATE":"2020-10-18"},{"OBJECT_NAME":"STARLINK-1720","APOAPSIS":"548.338","DECAY_DATE":null,"PERIAPSIS":"546.199","REV_AT_EPOCH":"7680","OBJECT_ID":"2020-073F","ELEMENT_SET_NO":"999","EPOCH":"2022-03-08T21:23:35.400480","SEMIMAJOR_AXIS":"6925.403","LAUNCH_DATE":"2020-10-18","COUNTRY_CODE":"US","EPHEMERIS_TYPE":"0","MEAN_ANOMALY":"298.4577","PERIOD":"95.593","MEAN_MOTION":"15.06382094","ECCENTRICITY":"0.00015440","GP_ID":"198273218","ARG_OF_PERICENTER":"61.6567","MEAN_ELEMENT_THEORY":"SGP4","MEAN_MOTION_DDOT":"0.0000000000000","CLASSIFICATION_TYPE":"U","BSTAR":"-0.00014749000000","MEAN_MOTION_DOT":"-0.00002477","NORAD_CAT_ID":"46675","CENTER_NAME":"EARTH","TLE_LINE2":"2 46675  53.0560 323.8975 0001544  61.6567 298.4577 15.06382094 76802","SITE":"AFETR","OBJECT_TYPE":"PAYLOAD","TLE_LINE1":"1 46675U 20073F   22067.89138195 -.00002477  00000-0 -14749-3 0  9991","REF_FRAME":"TEME","RA_OF_ASC_NODE":"323.8975","RCS_SIZE":"LARGE","TIME_SYSTEM":"UTC","INCLINATION":"53.0560","FILE":"3351330"},{"PERIOD":"95.593","MEAN_ANOMALY":"308.8591","ARG_OF_PERICENTER":"51.2557","MEAN_ELEMENT_THEORY":"SGP4","MEAN_MOTION":"15.06393666","ECCENTRICITY":"0.00017750","GP_ID":"198273469","MEAN_MOTION_DDOT":"0.0000000000000","MEAN_MOTION_DOT":"0.00005697","NORAD_CAT_ID":"46677","CENTER_NAME":"EARTH","TLE_LINE2":"2 46677  53.0535 323.9036 0001775  51.2557 308.8591 15.06393666 76804","BSTAR":"0.00040112000000","CLASSIFICATION_TYPE":"U","SITE":"AFETR","OBJECT_TYPE":"PAYLOAD","REF_FRAME":"TEME","TLE_LINE1":"1 46677U 20073H   22067.88768399  .00005697  00000-0  40112-3 0  9995","RA_OF_ASC_NODE":"323.9036","RCS_SIZE":"LARGE","TIME_SYSTEM":"UTC","INCLINATION":"53.0535","FILE":"3351330","OBJECT_NAME":"STARLINK-1766","APOAPSIS":"548.462","DECAY_DATE":null,"REV_AT_EPOCH":"7680","PERIAPSIS":"546.004","ELEMENT_SET_NO":"999","OBJECT_ID":"2020-073H","LAUNCH_DATE":"2020-10-18","EPOCH":"2022-03-08T21:18:15.896736","SEMIMAJOR_AXIS":"6925.368","COUNTRY_CODE":"US","EPHEMERIS_TYPE":"0"},{"MEAN_MOTION_DDOT":"0.0000000000000","CENTER_NAME":"EARTH","TLE_LINE2":"2 46679  53.0568 303.8776 0001671  60.0736 300.0419 15.06384241 77085","MEAN_MOTION_DOT":"0.00000160","NORAD_CAT_ID":"46679","CLASSIFICATION_TYPE":"U","BSTAR":"0.00002965800000","PERIOD":"95.593","MEAN_ANOMALY":"300.0419","MEAN_ELEMENT_THEORY":"SGP4","ARG_OF_PERICENTER":"60.0736","GP_ID":"198273720","ECCENTRICITY":"0.00016710","MEAN_MOTION":"15.06384241","RCS_SIZE":"LARGE","TIME_SYSTEM":"UTC","RA_OF_ASC_NODE":"303.8776","FILE":"3351330","INCLINATION":"53.0568","OBJECT_TYPE":"PAYLOAD","SITE":"AFETR","REF_FRAME":"TEME","TLE_LINE1":"1 46679U 20073K   22067.89321658  .00000160  00000-0  29658-4 0  9994","PERIAPSIS":"546.105","REV_AT_EPOCH":"7708","OBJECT_NAME":"STARLINK-1773","DECAY_DATE":null,"APOAPSIS":"548.419","COUNTRY_CODE":"US","EPHEMERIS_TYPE":"0","ELEMENT_SET_NO":"999","OBJECT_ID":"2020-073K","LAUNCH_DATE":"2020-10-18","SEMIMAJOR_AXIS":"6925.397","EPOCH":"2022-03-08T21:26:13.912512"},{"REF_FRAME":"TEME","TLE_LINE1":"1 46680U 20073L   22067.89551774 -.00000497  00000-0 -14497-4 0  9990","SITE":"AFETR","OBJECT_TYPE":"PAYLOAD","INCLINATION":"53.0581","FILE":"3351330","RA_OF_ASC_NODE":"338.8641","RCS_SIZE":"LARGE","TIME_SYSTEM":"UTC","ARG_OF_PERICENTER":"58.7606","MEAN_ELEMENT_THEORY":"SGP4","MEAN_MOTION":"15.06390013","ECCENTRICITY":"0.00016950","GP_ID":"198272468","PERIOD":"95.593","MEAN_ANOMALY":"301.3549","NORAD_CAT_ID":"46680","MEAN_MOTION_DOT":"-0.00000497","CENTER_NAME":"EARTH","TLE_LINE2":"2 46680  53.0581 338.8641 0001695  58.7606 301.3549 15.06390013 76594","CLASSIFICATION_TYPE":"U","BSTAR":"-0.00001449700000","MEAN_MOTION_DDOT":"0.0000000000000","LAUNCH_DATE":"2020-10-18","EPOCH":"2022-03-08T21:29:32.732736","SEMIMAJOR_AXIS":"6925.379","ELEMENT_SET_NO":"999","OBJECT_ID":"2020-073L","EPHEMERIS_TYPE":"0","COUNTRY_CODE":"US","APOAPSIS":"548.418","DECAY_DATE":null,"OBJECT_NAME":"STARLINK-1774","PERIAPSIS":"546.070","REV_AT_EPOCH":"7659"},{"LAUNCH_DATE":"2020-10-18","SEMIMAJOR_AXIS":"6925.403","EPOCH":"2022-03-08T11:13:51.020832","ELEMENT_SET_NO":"999","OBJECT_ID":"2020-073M","EPHEMERIS_TYPE":"0","COUNTRY_CODE":"US","DECAY_DATE":null,"APOAPSIS":"548.497","OBJECT_NAME":"STARLINK-1775","REV_AT_EPOCH":"7700","PERIAPSIS":"546.038","REF_FRAME":"TEME","TLE_LINE1":"1 46681U 20073M   22067.46795163 -.00002115  00000-0 -12315-3 0  9991","SITE":"AFETR","OBJECT_TYPE":"PAYLOAD","FILE":"3351151","INCLINATION":"53.0561","RCS_SIZE":"LARGE","TIME_SYSTEM":"UTC","RA_OF_ASC_NODE":"340.7903","MEAN_ELEMENT_THEORY":"SGP4","ARG_OF_PERICENTER":"58.3558","GP_ID":"198247954","ECCENTRICITY":"0.00017750","MEAN_MOTION":"15.06382391","PERIOD":"95.593","MEAN_ANOMALY":"301.7603","TLE_LINE2":"2 46681  53.0561 340.7903 0001775  58.3558 301.7603 15.06382391 77009","CENTER_NAME":"EARTH","MEAN_MOTION_DOT":"-0.00002115","NORAD_CAT_ID":"46681","CLASSIFICATION_TYPE":"U","BSTAR":"-0.00012315000000","MEAN_MOTION_DDOT":"0.0000000000000"},{"OBJECT_NAME":"STARLINK-1776","DECAY_DATE":null,"APOAPSIS":"548.431","REV_AT_EPOCH":"7659","PERIAPSIS":"546.052","ELEMENT_SET_NO":"999","OBJECT_ID":"2020-073N","LAUNCH_DATE":"2020-10-18","SEMIMAJOR_AXIS":"6925.376","EPOCH":"2022-03-08T21:24:13.429440","COUNTRY_CODE":"US","EPHEMERIS_TYPE":"0","PERIOD":"95.593","MEAN_ANOMALY":"300.6466","MEAN_ELEMENT_THEORY":"SGP4","ARG_OF_PERICENTER":"59.4692","GP_ID":"198273970","ECCENTRICITY":"0.00017180","MEAN_MOTION":"15.06390920","MEAN_MOTION_DDOT":"0.0000000000000","CENTER_NAME":"EARTH","TLE_LINE2":"2 46682  53.0553 338.8700 0001718  59.4692 300.6466 15.06390920 76597","NORAD_CAT_ID":"46682","MEAN_MOTION_DOT":"0.00000382","CLASSIFICATION_TYPE":"U","BSTAR":"0.00004452400000","SITE":"AFETR","OBJECT_TYPE":"PAYLOAD","REF_FRAME":"TEME","TLE_LINE1":"1 46682U 20073N   22067.89182210  .00000382  00000-0  44524-4 0  9992","RCS_SIZE":"LARGE","TIME_SYSTEM":"UTC","RA_OF_ASC_NODE":"338.8700","FILE":"3351330","INCLINATION":"53.0553"},{"COUNTRY_CODE":"US","EPHEMERIS_TYPE":"0","ELEMENT_SET_NO":"999","OBJECT_ID":"2020-073Q","LAUNCH_DATE":"2020-10-18","SEMIMAJOR_AXIS":"6925.439","EPOCH":"2022-03-08T21:07:37.886304","PERIAPSIS":"545.931","REV_AT_EPOCH":"7680","OBJECT_NAME":"STARLINK-1780","DECAY_DATE":null,"APOAPSIS":"548.676","RCS_SIZE":"LARGE","TIME_SYSTEM":"UTC","RA_OF_ASC_NODE":"323.9271","FILE":"3351330","INCLINATION":"53.0533","OBJECT_TYPE":"PAYLOAD","SITE":"AFETR","REF_FRAME":"TEME","TLE_LINE1":"1 46684U 20073Q   22067.88029961 -.00006992  00000-0 -45130-3 0  9994","MEAN_MOTION_DDOT":"0.0000000000000","CENTER_NAME":"EARTH","TLE_LINE2":"2 46684  53.0533 323.9271 0001982  52.6768 307.4402 15.06370619 76809","MEAN_MOTION_DOT":"-0.00006992","NORAD_CAT_ID":"46684","CLASSIFICATION_TYPE":"U","BSTAR":"-0.00045130000000","PERIOD":"95.594","MEAN_ANOMALY":"307.4402","MEAN_ELEMENT_THEORY":"SGP4","ARG_OF_PERICENTER":"52.6768","GP_ID":"198274221","ECCENTRICITY":"0.00019820","MEAN_MOTION":"15.06370619"},{"MEAN_MOTION_DDOT":"0.0000000000000","CENTER_NAME":"EARTH","TLE_LINE2":"2 46685  53.0565 338.9918 0001513  51.1434 308.9690 15.06384489 76583","MEAN_MOTION_DOT":"-0.00001466","NORAD_CAT_ID":"46685","CLASSIFICATION_TYPE":"U","BSTAR":"-0.00007954900000","PERIOD":"95.593","MEAN_ANOMALY":"308.9690","MEAN_ELEMENT_THEORY":"SGP4","ARG_OF_PERICENTER":"51.1434","GP_ID":"198272969","ECCENTRICITY":"0.00015130","MEAN_MOTION":"15.06384489","TIME_SYSTEM":"UTC","RCS_SIZE":"LARGE","RA_OF_ASC_NODE":"338.9918","FILE":"3351330","INCLINATION":"53.0565","SITE":"AFETR","OBJECT_TYPE":"PAYLOAD","REF_FRAME":"TEME","TLE_LINE1":"1 46685U 20073R   22067.86972453 -.00001466  00000-0 -79549-4 0  9999","PERIAPSIS":"546.213","REV_AT_EPOCH":"7658","OBJECT_NAME":"STARLINK-1781","DECAY_DATE":null,"APOAPSIS":"548.309","COUNTRY_CODE":"US","EPHEMERIS_TYPE":"0","ELEMENT_SET_NO":"999","OBJECT_ID":"2020-073R","LAUNCH_DATE":"2020-10-18","SEMIMAJOR_AXIS":"6925.396","EPOCH":"2022-03-08T20:52:24.199392"},{"LAUNCH_DATE":"2020-10-18","SEMIMAJOR_AXIS":"6925.416","EPOCH":"2022-03-08T20:25:50.845152","ELEMENT_SET_NO":"999","OBJECT_ID":"2020-073S","EPHEMERIS_TYPE":"0","COUNTRY_CODE":"US","DECAY_DATE":null,"APOAPSIS":"548.509","OBJECT_NAME":"STARLINK-1783","PERIAPSIS":"546.053","REV_AT_EPOCH":"7658","REF_FRAME":"TEME","TLE_LINE1":"1 46686U 20073S   22067.85128293  .00009060  00000-0  62674-3 0  9990","OBJECT_TYPE":"PAYLOAD","SITE":"AFETR","FILE":"3351330","INCLINATION":"53.0553","TIME_SYSTEM":"UTC","RCS_SIZE":"LARGE","RA_OF_ASC_NODE":"339.0670","MEAN_ELEMENT_THEORY":"SGP4","ARG_OF_PERICENTER":"55.7516","GP_ID":"198273219","ECCENTRICITY":"0.00017730","MEAN_MOTION":"15.06377926","MEAN_ANOMALY":"304.3641","PERIOD":"95.594","TLE_LINE2":"2 46686  53.0553 339.0670 0001773  55.7516 304.3641 15.06377926 76581","CENTER_NAME":"EARTH","NORAD_CAT_ID":"46686","MEAN_MOTION_DOT":"0.00009060","CLASSIFICATION_TYPE":"U","BSTAR":"0.00062674000000","MEAN_MOTION_DDOT":"0.0000000000000"}];
